NORAD_CAT_ID,OBJECT_NAME,OBJECT_TYPE,EPOCH,MEAN_MOTION,ECCENTRICITY,INCLINATION,RA_OF_ASC_NODE,ARG_OF_PERICENTER,MEAN_ANOMALY,BSTAR,MEAN_MOTION_DOT,MEAN_MOTION_DDOT,TLE_LINE0,TLE_LINE1,TLE_LINE2,SEMIMAJOR_AXIS,PERIOD,APOGEE,PERIGEE,DECAYED
52648.0,STARLINK-3854,PAYLOAD,2022-06-15 22:00:00,15.73246935,0.0001683,53.2131,280.8131,36.376,142.9305,-0.00030977,-0.00043957,0.0,0 STARLINK-3854,1 52648U 22052BC  22166.91667824 -.00043957  00000-0 -30977-3 0  9995,2 52648  53.2131 280.8131 0001683  36.3760 142.9305 15.73246935  1301,6727.761,91.53,350.759,348.494,0.0
52648.0,STARLINK-3854,PAYLOAD,2022-06-16 02:00:01,15.73196833,0.0001471,53.2137,279.9872,38.3708,5.4344,0.0005366,0.00075357,0.0,0 STARLINK-3854,1 52648U 22052BC  22167.08334491  .00075357  00000-0  53660-3 0  9996,2 52648  53.2137 279.9872 0001471  38.3708   5.4344 15.73196833  1304,6727.904,91.533,350.759,348.78,0.0
52648.0,STARLINK-3854,PAYLOAD,2022-06-19 14:00:01,15.73221831,0.0002011,53.213,262.6689,23.9734,53.6198,5.8608e-05,7.62e-05,0.0,0 STARLINK-3854,1 52648U 22052BC  22170.58334491  .00007620  00000-0  58608-4 0  9991,2 52648  53.2130 262.6689 0002011  23.9734  53.6198 15.73221831  1301,6727.833000000001,91.532,351.051,348.345,0.0
52648.0,STARLINK-3854,PAYLOAD,2022-06-19 22:00:00,15.73278351,0.0001998,53.2124,261.0181,24.2608,142.2834,-0.0007146,-0.0010007,0.0,0 STARLINK-3854,1 52648U 22052BC  22170.91667824 -.00100070  00000-0 -71460-3 0  9992,2 52648  53.2124 261.0181 0001998  24.2608 142.2834 15.73278351  1302,6727.672,91.529,350.881,348.1930000000001,0.0
52648.0,STARLINK-3854,PAYLOAD,2022-06-20 04:00:01,15.73186774,0.0001834,53.2125,259.7795,28.9452,114.411,0.00055842,0.00078443,0.0,0 STARLINK-3854,1 52648U 22052BC  22171.16668981  .00078443  00000-0  55842-3 0  9997,2 52648  53.2125 259.7795 0001834  28.9452 114.4110 15.73186774  6103,6727.933000000001,91.534,351.032,348.564,0.0
52648.0,STARLINK-3854,PAYLOAD,2022-06-20 10:00:00,15.73258396,0.0001965,53.2128,258.5437,25.1776,94.8036,-0.00090966,-0.0012671,0.0,0 STARLINK-3854,1 52648U 22052BC  22171.41667824 -.00126710  00000-0 -90966-3 0  9999,2 52648  53.2128 258.5437 0001965  25.1776  94.8036 15.73258396  6141,6727.729,91.53,350.916,348.272,0.0
52648.0,STARLINK-3854,PAYLOAD,2022-06-20 14:00:01,15.73181007,0.0002105,53.2129,257.7197,23.6116,320.8633,-0.00015614,-0.0002246,0.0,0 STARLINK-3854,1 52648U 22052BC  22171.58334491 -.00022460  00000-0 -15614-3 0  9992,2 52648  53.2129 257.7197 0002105  23.6116 320.8633 15.73181007  1306,6727.949000000001,91.534,351.231,348.398,0.0
52648.0,STARLINK-3854,PAYLOAD,2022-06-20 20:00:01,15.73198739,0.0002151,53.2128,256.4819,21.8167,299.3441,-0.00031677,-0.00044844,0.0,0 STARLINK-3854,1 52648U 22052BC  22171.83334491 -.00044844  00000-0 -31677-3 0  9997,2 52648  53.2128 256.4819 0002151  21.8167 299.3441 15.73198739  6200,6727.899,91.533,351.211,348.31699999999995,0.0
52648.0,STARLINK-3854,PAYLOAD,2022-06-20 22:00:00,15.731794400000002,0.0002098,53.2129,256.0689,23.4965,49.8977,-7.5323e-05,-0.0001117,0.0,0 STARLINK-3854,1 52648U 22052BC  22171.91667824 -.00011170  00000-0 -75323-4 0  9998,2 52648  53.2129 256.0689 0002098  23.4965  49.8977 15.73179440  1302,6727.954000000002,91.534,351.23,348.407,0.0
52648.0,STARLINK-3854,PAYLOAD,2022-06-21 04:00:00,15.73157593,0.000206,53.213,254.8306,28.4626,21.6083,0.00067495,0.00095013,0.0,0 STARLINK-3854,1 52648U 22052BC  22172.16667824  .00095013  00000-0  67495-3 0  9992,2 52648  53.2130 254.8306 0002060  28.4626  21.6083 15.73157593  6265,6728.016,91.536,351.267,348.495,0.0
52648.0,STARLINK-3854,PAYLOAD,2022-06-21 12:00:00,15.73208705,0.0002298,53.2127,253.183,26.3093,112.6591,0.0001343,0.00018276,0.0,0 STARLINK-3854,1 52648U 22052BC  22172.50001157  .00018276  00000-0  13430-3 0  9997,2 52648  53.2127 253.1830 0002298  26.3093 112.6591 15.73208705  6316,6727.87,91.533,351.281,348.189,0.0
52648.0,STARLINK-3854,PAYLOAD,2022-06-21 14:00:01,15.73216872,0.0002339,53.2129,252.7711,25.5379,225.6646,3.8565e-05,4.798e-05,0.0,0 STARLINK-3854,1 52648U 22052BC  22172.58334491  .00004798  00000-0  38565-4 0  9996,2 52648  53.2129 252.7711 0002339  25.5379 225.6646 15.73216872  1309,6727.847,91.532,351.286,348.13800000000015,0.0
52648.0,STARLINK-3854,PAYLOAD,2022-06-21 22:00:00,15.73235631,0.0002177,53.2131,251.1199,25.1471,315.0146,-0.0008027999999999,-0.00111987,0.0,0 STARLINK-3854,1 52648U 22052BC  22172.91667824 -.00111987  00000-0 -80280-3 0  9993,2 52648  53.2131 251.1199 0002177  25.1471 315.0146 15.73235631  1307,6727.794,91.531,351.12300000000016,348.194,0.0
52648.0,STARLINK-3854,PAYLOAD,2022-06-22 04:00:00,15.73138099,0.0002119,53.2139,249.8816,29.0774,287.7903,0.0005416,0.00075881,0.0,0 STARLINK-3854,1 52648U 22052BC  22173.16667824  .00075881  00000-0  54160-3 0  9999,2 52648  53.2139 249.8816 0002119  29.0774 287.7903 15.73138099  6413,6728.071999999999,91.537,351.362,348.511,0.0
52648.0,STARLINK-3854,PAYLOAD,2022-06-22 14:00:01,15.73164249,0.000242,53.2149,247.8222,25.8551,132.1168,0.0004939,0.00069167,0.0,0 STARLINK-3854,1 52648U 22052BC  22173.58334491  .00069167  00000-0  49390-3 0  9995,2 52648  53.2149 247.8222 0002420  25.8551 132.1168 15.73164249  6484,6727.996999999999,91.535,351.49,348.2340000000001,0.0
52648.0,STARLINK-3854,PAYLOAD,2022-06-22 22:00:00,15.73241594,0.0002283,53.2149,246.1711,23.7636,223.1348,-0.00056955,-0.00079951,0.0,0 STARLINK-3854,1 52648U 22052BC  22173.91667824 -.00079951  00000-0 -56955-3 0  9990,2 52648  53.2149 246.1711 0002283  23.7636 223.1348 15.73241594  1303,6727.776999999999,91.531,351.17800000000005,348.106,0.0
52648.0,STARLINK-3854,PAYLOAD,2022-06-23 04:00:01,15.73163379,0.0002175,53.215,244.933,24.4406,199.2302,0.00050254,0.00070394,0.0,0 STARLINK-3854,1 52648U 22052BC  22174.16668981  .00070394  00000-0  50254-3 0  9999,2 52648  53.2150 244.9330 0002175  24.4406 199.2302 15.73163379  6572,6728.0,91.535,351.32800000000015,348.401,0.0
52648.0,STARLINK-3854,PAYLOAD,2022-06-23 14:00:01,15.73225455,0.0002475,53.2147,242.8737,20.0419,44.7236,-8.405600000000001e-05,-0.00012416,0.0,0 STARLINK-3854,1 52648U 22052BC  22174.58334491 -.00012416  00000-0 -84056-4 0  9992,2 52648  53.2147 242.8737 0002475  20.0419  44.7236 15.73225455  1305,6727.823,91.532,351.353,348.022,0.0
52648.0,STARLINK-3854,PAYLOAD,2022-06-23 20:00:01,15.73222797,0.0002322,53.2142,241.6353,17.1862,24.2997,-0.00037881,-0.00053507,0.0,0 STARLINK-3854,1 52648U 22052BC  22174.83334491 -.00053507  00000-0 -37881-3 0  9999,2 52648  53.2142 241.6353 0002322  17.1862  24.2997 15.73222797  6680,6727.83,91.532,351.25699999999995,348.1330000000001,0.0
52648.0,STARLINK-3854,PAYLOAD,2022-06-23 22:00:00,15.73196451,0.0002241,53.2144,241.2224,16.0344,137.6913,-3.0002e-06,-1.043e-05,0.0,0 STARLINK-3854,1 52648U 22052BC  22174.91667824 -.00001043  00000-0 -30002-5 0  9995,2 52648  53.2144 241.2224 0002241  16.0344 137.6913 15.73196451  1306,6727.905,91.533,351.278,348.26300000000015,0.0
52648.0,STARLINK-3854,PAYLOAD,2022-06-24 04:00:00,15.73182226,0.0002132,53.2146,239.9847,19.5337,110.8729,0.00045254,0.00063326,0.0,0 STARLINK-3854,1 52648U 22052BC  22175.16667824  .00063326  00000-0  45254-3 0  9996,2 52648  53.2146 239.9847 0002132  19.5337 110.8729 15.73182226  6737,6727.946,91.534,351.245,348.376,0.0
52648.0,STARLINK-3854,PAYLOAD,2022-06-24 12:00:00,15.73234479,0.0002482,53.2147,238.3373,19.776,199.5599,-0.0004044,-0.00057086,0.0,0 STARLINK-3854,1 52648U 22052BC  22175.50001157 -.00057086  00000-0 -40440-3 0  9995,2 52648  53.2147 238.3373 0002482  19.7760 199.5599 15.73234479  6787,6727.797,91.531,351.332,347.992,0.0
52648.0,STARLINK-3854,PAYLOAD,2022-06-24 14:00:01,15.73211636,0.0002523,53.2148,237.9252,19.8123,311.7681,-0.00015643,-0.00022532,0.0,0 STARLINK-3854,1 52648U 22052BC  22175.58334491 -.00022532  00000-0 -15643-3 0  9998,2 52648  53.2148 237.9252 0002523  19.8123 311.7681 15.73211636  1302,6727.861999999999,91.533,351.4240000000001,348.03,0.0
52648.0,STARLINK-3854,PAYLOAD,2022-06-24 22:00:01,15.73182918,0.0002411,53.2149,236.2737,22.626,37.9546,0.00020375,0.00028051,0.0,0 STARLINK-3854,1 52648U 22052BC  22175.91668981  .00028051  00000-0  20375-3 0  9997,2 52648  53.2149 236.2737 0002411  22.6260  37.9546 15.73182918  1300,6727.944,91.534,351.431,348.18699999999984,0.0
52648.0,STARLINK-3854,PAYLOAD,2022-06-25 04:00:00,15.73208335,0.0002413,53.215,235.0362,24.7813,12.41,1.9461e-05,2.111e-05,0.0,0 STARLINK-3854,1 52648U 22052BC  22176.16667824  .00002111  00000-0  19461-4 0  9994,2 52648  53.2150 235.0362 0002413  24.7813  12.4100 15.73208335  6886,6727.871,91.533,351.36,348.11300000000006,0.0
52648.0,STARLINK-3854,PAYLOAD,2022-06-25 14:00:01,15.73161335,0.0002675,53.2145,232.9767,18.4862,219.9094,0.00044022,0.00061519,0.0,0 STARLINK-3854,1 52648U 22052BC  22176.58334491  .00061519  00000-0  44022-3 0  9998,2 52648  53.2145 232.9767 0002675  18.4862 219.9094 15.73161335  1305,6728.005,91.535,351.67,348.071,0.0
52648.0,STARLINK-3854,PAYLOAD,2022-06-25 22:00:00,15.73199661,0.0002425,53.2141,231.3252,20.6499,306.6683,0.00031464,0.0004377,0.0,0 STARLINK-3854,1 52648U 22052BC  22176.91667824  .00043770  00000-0  31464-3 0  9999,2 52648  53.2141 231.3252 0002425  20.6499 306.6683 15.73199661  1308,6727.896,91.533,351.39300000000014,348.13,0.0
52648.0,STARLINK-3854,PAYLOAD,2022-06-26 04:00:00,15.73232336,0.0002354,53.2143,230.0878,21.4137,282.6089,0.00036311,0.00050722,0.0,0 STARLINK-3854,1 52648U 22052BC  22177.16667824  .00050722  00000-0  36311-3 0  9998,2 52648  53.2143 230.0878 0002354  21.4137 282.6089 15.73232336  7046,6727.803000000001,91.531,351.25199999999984,348.084,0.0
52648.0,STARLINK-3854,PAYLOAD,2022-06-26 12:00:00,15.73262624,0.0002605,53.2143,228.4403,17.7863,15.2378,-0.00044616,-0.0006295,0.0,0 STARLINK-3854,1 52648U 22052BC  22177.50001157 -.00062950  00000-0 -44616-3 0  9992,2 52648  53.2143 228.4403 0002605  17.7863  15.2378 15.73262624  7093,6727.717,91.53,351.334,347.829,0.0
